{
  "type": "FeatureCollection",
  "features": [
    {
      "type": "Feature",
      "properties": {
        "norad_id": 66878,
        "name": "STARLINK-35866",
        "group": "last-30-days",
        "lat": 14.450611006287458,
        "lon": 12.402163487142362,
        "alt_km": 407.89514912364666,
        "timestamp": "2025-12-27T08:36:17.078860+00:00",
        "meta_object_name": "STARLINK-35866",
        "meta_object_id": "2025-283A",
        "meta_epoch": "2025-12-27T04:00:01.998720",
        "meta_mean_motion": 15.53395526,
        "meta_eccentricity": 0.0001118,
        "meta_inclination": 53.1594,
        "meta_ra_of_asc_node": 2.1848,
        "meta_arg_of_pericenter": 82.247,
        "meta_mean_anomaly": 302.9031,
        "meta_ephemeris_type": 0,
        "meta_classification_type": "U",
        "meta_norad_cat_id": 66878,
        "meta_element_set_no": 999,
        "meta_rev_at_epoch": 474,
        "meta_bstar": -0.035816,
        "meta_mean_motion_dot": -0.02055236,
        "meta_mean_motion_ddot": 0,
        "tle_line1": "1 66878U 25283A   25361.16668980 -.02055236  00000+0 -35816-1 0  9994",
        "tle_line2": "2 66878  53.1594   2.1848 0001118  82.2470 302.9031 15.53395526  4748"
      },
      "geometry": {
        "type": "Point",
        "coordinates": [
          12.402163487142362,
          14.450611006287458
        ]
      }
    },
    {
      "type": "Feature",
      "properties": {
        "norad_id": 66879,
        "name": "STARLINK-35749",
        "group": "last-30-days",
        "lat": 17.485150927927375,
        "lon": 14.914800990847041,
        "alt_km": 407.48509461267895,
        "timestamp": "2025-12-27T08:36:17.078870+00:00",
        "meta_object_name": "STARLINK-35749",
        "meta_object_id": "2025-283B",
        "meta_epoch": "2025-12-27T04:00:01.998720",
        "meta_mean_motion": 15.53398144,
        "meta_eccentricity": 0.0001223,
        "meta_inclination": 53.1594,
        "meta_ra_of_asc_node": 2.1763,
        "meta_arg_of_pericenter": 87.609,
        "meta_mean_anomaly": 301.4317,
        "meta_ephemeris_type": 0,
        "meta_classification_type": "U",
        "meta_norad_cat_id": 66879,
        "meta_element_set_no": 999,
        "meta_rev_at_epoch": 474,
        "meta_bstar": -0.037066,
        "meta_mean_motion_dot": -0.02119184,
        "meta_mean_motion_ddot": 0,
        "tle_line1": "1 66879U 25283B   25361.16668980 -.02119184  00000+0 -37066-1 0  9997",
        "tle_line2": "2 66879  53.1594   2.1763 0001223  87.6090 301.4317 15.53398144  4749"
      },
      "geometry": {
        "type": "Point",
        "coordinates": [
          14.914800990847041,
          17.485150927927375
        ]
      }
    },
    {
      "type": "Feature",
      "properties": {
        "norad_id": 66880,
        "name": "STARLINK-35844",
        "group": "last-30-days",
        "lat": 15.953558501662393,
        "lon": 13.634111000417755,
        "alt_km": 407.6480692682235,
        "timestamp": "2025-12-27T08:36:17.078893+00:00",
        "meta_object_name": "STARLINK-35844",
        "meta_object_id": "2025-283C",
        "meta_epoch": "2025-12-27T04:00:01.998720",
        "meta_mean_motion": 15.53395048,
        "meta_eccentricity": 0.000109,
        "meta_inclination": 53.1599,
        "meta_ra_of_asc_node": 2.1809,
        "meta_arg_of_pericenter": 82.2858,
        "meta_mean_anomaly": 304.7812,
        "meta_ephemeris_type": 0,
        "meta_classification_type": "U",
        "meta_norad_cat_id": 66880,
        "meta_element_set_no": 999,
        "meta_rev_at_epoch": 474,
        "meta_bstar": -0.035788,
        "meta_mean_motion_dot": -0.02053768,
        "meta_mean_motion_ddot": 0,
        "tle_line1": "1 66880U 25283C   25361.16668980 -.02053768  00000+0 -35788-1 0  9993",
        "tle_line2": "2 66880  53.1599   2.1809 0001090  82.2858 304.7812 15.53395048  4748"
      },
      "geometry": {
        "type": "Point",
        "coordinates": [
          13.634111000417755,
          15.953558501662393
        ]
      }
    },
    {
      "type": "Feature",
      "properties": {
        "norad_id": 66881,
        "name": "STARLINK-35860",
        "group": "last-30-days",
        "lat": 18.937570062632336,
        "lon": 16.1555332607453,
        "alt_km": 407.06099948289466,
        "timestamp": "2025-12-27T08:36:17.078905+00:00",
        "meta_object_name": "STARLINK-35860",
        "meta_object_id": "2025-283D",
        "meta_epoch": "2025-12-27T04:00:01.998720",
        "meta_mean_motion": 15.53401658,
        "meta_eccentricity": 0.0001178,
        "meta_inclination": 53.1597,
        "meta_ra_of_asc_node": 2.1718,
        "meta_arg_of_pericenter": 78.5399,
        "meta_mean_anomaly": 312.3596,
        "meta_ephemeris_type": 0,
        "meta_classification_type": "U",
        "meta_norad_cat_id": 66881,
        "meta_element_set_no": 999,
        "meta_rev_at_epoch": 474,
        "meta_bstar": -0.036015,
        "meta_mean_motion_dot": -0.02065903,
        "meta_mean_motion_ddot": 0,
        "tle_line1": "1 66881U 25283D   25361.16668980 -.02065903  00000+0 -36015-1 0  9992",
        "tle_line2": "2 66881  53.1597   2.1718 0001178  78.5399 312.3596 15.53401658  4740"
      },
      "geometry": {
        "type": "Point",
        "coordinates": [
          16.1555332607453,
          18.937570062632336
        ]
      }
    },
    {
      "type": "Feature",
      "properties": {
        "norad_id": 66882,
        "name": "STARLINK-35912",
        "group": "last-30-days",
        "lat": 20.41360314757546,
        "lon": 17.448119322442487,
        "alt_km": 406.83573344098113,
        "timestamp": "2025-12-27T08:36:17.078915+00:00",
        "meta_object_name": "STARLINK-35912",
        "meta_object_id": "2025-283E",
        "meta_epoch": "2025-12-27T04:00:01.998720",
        "meta_mean_motion": 15.53395372,
        "meta_eccentricity": 0.0001182,
        "meta_inclination": 53.1604,
        "meta_ra_of_asc_node": 2.1691,
        "meta_arg_of_pericenter": 81.7499,
        "meta_mean_anomaly": 311.065,
        "meta_ephemeris_type": 0,
        "meta_classification_type": "U",
        "meta_norad_cat_id": 66882,
        "meta_element_set_no": 999,
        "meta_rev_at_epoch": 474,
        "meta_bstar": -0.035754,
        "meta_mean_motion_dot": -0.02052103,
        "meta_mean_motion_ddot": 0,
        "tle_line1": "1 66882U 25283E   25361.16668980 -.02052103  00000+0 -35754-1 0  9990",
        "tle_line2": "2 66882  53.1604   2.1691 0001182  81.7499 311.0650 15.53395372  4744"
      },
      "geometry": {
        "type": "Point",
        "coordinates": [
          17.448119322442487,
          20.41360314757546
        ]
      }
    },
    {
      "type": "Feature",
      "properties": {
        "norad_id": 66883,
        "name": "STARLINK-35947",
        "group": "last-30-days",
        "lat": 21.886396024936793,
        "lon": 18.771181055434322,
        "alt_km": 406.69185861231927,
        "timestamp": "2025-12-27T08:36:17.078927+00:00",
        "meta_object_name": "STARLINK-35947",
        "meta_object_id": "2025-283F",
        "meta_epoch": "2025-12-27T04:00:01.998720",
        "meta_mean_motion": 15.53406723,
        "meta_eccentricity": 0.0001245,
        "meta_inclination": 53.16,
        "meta_ra_of_asc_node": 2.1653,
        "meta_arg_of_pericenter": 93.6517,
        "meta_mean_anomaly": 301.0829,
        "meta_ephemeris_type": 0,
        "meta_classification_type": "U",
        "meta_norad_cat_id": 66883,
        "meta_element_set_no": 999,
        "meta_rev_at_epoch": 479,
        "meta_bstar": -0.036209,
        "meta_mean_motion_dot": -0.02076192,
        "meta_mean_motion_ddot": 0,
        "tle_line1": "1 66883U 25283F   25361.16668980 -.02076192  00000+0 -36209-1 0  9991",
        "tle_line2": "2 66883  53.1600   2.1653 0001245  93.6517 301.0829 15.53406723  4797"
      },
      "geometry": {
        "type": "Point",
        "coordinates": [
          18.771181055434322,
          21.886396024936793
        ]
      }
    },
    {
      "type": "Feature",
      "properties": {
        "norad_id": 66884,
        "name": "STARLINK-36057",
        "group": "last-30-days",
        "lat": 24.792712835787864,
        "lon": 21.495319856906825,
        "alt_km": 406.11407615508415,
        "timestamp": "2025-12-27T08:36:17.078940+00:00",
        "meta_object_name": "STARLINK-36057",
        "meta_object_id": "2025-283G",
        "meta_epoch": "2025-12-27T04:00:01.998720",
        "meta_mean_motion": 15.53400934,
        "meta_eccentricity": 0.0001004,
        "meta_inclination": 53.1602,
        "meta_ra_of_asc_node": 2.1566,
        "meta_arg_of_pericenter": 77.9798,
        "meta_mean_anomaly": 320.588,
        "meta_ephemeris_type": 0,
        "meta_classification_type": "U",
        "meta_norad_cat_id": 66884,
        "meta_element_set_no": 999,
        "meta_rev_at_epoch": 474,
        "meta_bstar": -0.035988,
        "meta_mean_motion_dot": -0.02064369,
        "meta_mean_motion_ddot": 0,
        "tle_line1": "1 66884U 25283G   25361.16668980 -.02064369  00000+0 -35988-1 0  9998",
        "tle_line2": "2 66884  53.1602   2.1566 0001004  77.9798 320.5880 15.53400934  4748"
      },
      "geometry": {
        "type": "Point",
        "coordinates": [
          21.495319856906825,
          24.792712835787864
        ]
      }
    }
  ]
}